[{"OBJECT_NAME":"STARLINK-1297","OBJECT_ID":"2020-019AM","EPOCH":"2026-03-09T21:10:27.474816","MEAN_MOTION":15.541873,"ECCENTRICITY":0.00048298,"INCLINATION":53.0474,"RA_OF_ASC_NODE":129.7713,"ARG_OF_PERICENTER":18.8538,"MEAN_ANOMALY":341.265,"EPHEMERIS_TYPE":0,"CLASSIFICATION_TYPE":"U","NORAD_CAT_ID":45395,"ELEMENT_SET_NO":999,"REV_AT_EPOCH":32944,"BSTAR":0.0015120632,"MEAN_MOTION_DOT":0.00101021,"MEAN_MOTION_DDOT":0},{"OBJECT_NAME":"STARLINK-1478","OBJECT_ID":"2020-038AB","EPOCH":"2026-03-09T15:11:59.368128","MEAN_MOTION":15.55038308,"ECCENTRICITY":0.0003392,"INCLINATION":53.0519,"RA_OF_ASC_NODE":198.1629,"ARG_OF_PERICENTER":240.0104,"MEAN_ANOMALY":120.057,"EPHEMERIS_TYPE":0,"CLASSIFICATION_TYPE":"U","NORAD_CAT_ID":45755,"ELEMENT_SET_NO":999,"REV_AT_EPOCH":31672,"BSTAR":0.0016531,"MEAN_MOTION_DOT":0.00114162,"MEAN_MOTION_DDOT":0}]
